*******************************************************************************
Ephemeris / PORT_LOGIN Sun Nov 27 10:13:22 2011 Pasadena, USA    / Horizons    
*******************************************************************************
Target body name: Europa (502)                    {source: JUP230}
Center body name: Solar System Barycenter (0)     {source: DE405}
Center-site name: BODY CENTER
*******************************************************************************
Start time      : A.D. 2001-Jan-01 10:00:00.0000 CT 
Stop  time      : A.D. 2001-Jan-02 00:00:00.0000 CT 
Step-size       : 60 minutes
*******************************************************************************
Center geodetic : 0.00000000,0.00000000,0.0000000 {E-lon(deg),Lat(deg),Alt(km)}
Center cylindric: 0.00000000,0.00000000,0.0000000 {E-lon(deg),Dxy(km),Dz(km)}
Center radii    : (undefined)                                                  
Output units    : AU-D                                                         
Output format   : 03
Reference frame : ICRF/J2000.0                                                 
Output type     : GEOMETRIC cartesian states
Coordinate systm: Earth Mean Equator and Equinox of Reference Epoch            
*******************************************************************************
JDCT 
   X     Y     Z
   VX    VY    VZ
   LT    RG    RR
*******************************************************************************
$$SOE
2451910.916666667 = A.D. 2001-Jan-01 10:00:00.0000 (CT)
   1.786053156344986E+00  4.343283885832989E+00  1.817960034337687E+00
  -1.348413969994467E-03 -2.212663176830307E-03 -8.827655689327551E-04
   2.908423928172791E-02  5.035779927347448E+00 -2.705319944165335E-03
2451910.958333333 = A.D. 2001-Jan-01 11:00:00.0000 (CT)
   1.786005160249414E+00  4.343199826024974E+00  1.817927167830654E+00
  -9.607029645272066E-04 -1.817763564274521E-03 -6.928256984234624E-04
   2.908365371181991E-02  5.035678539060817E+00 -2.158644048392088E-03
2451911.000000000 = A.D. 2001-Jan-01 12:00:00.0000 (CT)
   1.785972640451900E+00  4.343132761337857E+00  1.817902458614126E+00
  -6.059130338689775E-04 -1.397251503569895E-03 -4.913861270667305E-04
   2.908320150964030E-02  5.035600242680530E+00 -1.597403396383940E-03
2451911.041666667 = A.D. 2001-Jan-01 13:00:00.0000 (CT)
   1.785954181233810E+00  4.343083713609368E+00  1.817886364040803E+00
  -2.861280953060365E-04 -9.533293001989458E-04 -2.795048935832664E-04
   2.908288581877467E-02  5.035545582501558E+00 -1.024617625990289E-03
2451911.083333333 = A.D. 2001-Jan-01 14:00:00.0000 (CT)
   1.785948283700373E+00  4.343053609783786E+00  1.817879295967564E+00
  -3.254301157649113E-06 -4.883477713234630E-04 -5.830690148165268E-05
   2.908270904502796E-02  5.035514975076115E+00 -4.433960547650140E-04
2451911.125000000 = A.D. 2001-Jan-01 15:00:00.0000 (CT)
   1.785953373480712E+00  4.343043275952581E+00  1.817881618080358E+00
   2.409939089025178E-04 -4.795074264220666E-06  1.710214954187844E-04
   2.908267283682980E-02  5.035508705820944E+00  1.430789905173644E-04
2451911.166666667 = A.D. 2001-Jan-01 16:00:00.0000 (CT)
   1.785967808992571E+00  4.343053431885063E+00  1.817893643455910E+00
   4.451069424001772E-04  4.947156394792940E-04  4.072384446298798E-04
   2.908277806976505E-02  5.035526926338866E+00  7.315697761694810E-04
2451911.208333333 = A.D. 2001-Jan-01 17:00:00.0000 (CT)
   1.785989890234941E+00  4.343084686097665E+00  1.817915632382464E+00
   6.077922346898924E-04  1.007459730037510E-03  6.490530750015107E-04
   2.908302483544547E-02  5.035569652491960E+00  1.318801625534104E-03
2451911.250000000 = A.D. 2001-Jan-01 18:00:00.0000 (CT)
   1.786017868065882E+00  4.343137531509870E+00  1.817947790461371E+00
   7.279853348607080E-04  1.530615720176135E-03  8.951324962936615E-04
   2.908341243492107E-02  5.035636763260793E+00  1.901482174018847E-03
2451911.291666667 = A.D. 2001-Jan-01 19:00:00.0000 (CT)
   1.786049953917019E+00  4.343212341734201E+00  1.817990267011003E+00
   8.048597561184506E-04  2.061281076866648E-03  1.144109309513888E-03
   2.908393937681343E-02  5.035728000421191E+00  2.476321344442221E-03
2451911.333333333 = A.D. 2001-Jan-01 20:00:00.0000 (CT)
   1.786084329890273E+00  4.343309368047084E+00  1.818043153794082E+00
   8.378354498451441E-04  2.596489108790294E-03  1.394589619220373E-03
   2.908460338033545E-02  5.035842969067112E+00  3.040051971804833E-03
2451911.375000000 = A.D. 2001-Jan-01 21:00:00.0000 (CT)
   1.786119159176571E+00  4.343428737086755E+00  1.818106484089160E+00
   8.265857625360860E-04  3.133226965143966E-03  1.645161538990804E-03
   2.908540138334545E-02  5.035981139005160E+00  3.589451006636199E-03
2451911.416666667 = A.D. 2001-Jan-01 22:00:00.0000 (CT)
   1.786152596730374E+00  4.343570449323823E+00  1.818180232126621E+00
   7.710427348150146E-04  3.668454721116355E-03  1.894404181257254E-03
   2.908632955556633E-02  5.036141847043412E+00  4.121361226254680E-03
2451911.458333333 = A.D. 2001-Jan-01 23:00:00.0000 (CT)
   1.786182800128008E+00  4.343734378349430E+00  1.818264312909188E+00
   6.714006017278941E-04  4.199125535402754E-03  2.140897122707299E-03
   2.908738331708348E-02  5.036324300194235E+00  4.632713383620802E-03
2451911.500000000 = A.D. 2001-Jan-02 00:00:00.0000 (CT)
   1.786207940531928E+00  4.343920271025398E+00  1.818358582436585E+00
   5.281173535157998E-04  4.722206865126900E-03  2.383230336451559E-03
   2.908855736221844E-02  5.036527579807885E+00  5.120548723963570E-03
$$EOE
*******************************************************************************
Coordinate system description:

  Earth Mean Equator and Equinox of Reference Epoch

    Reference epoch: J2000.0
    xy-plane: plane of the Earth's mean equator at the reference epoch
    x-axis  : out along ascending node of instantaneous plane of the Earth's
              orbit and the Earth's mean equator at the reference epoch
    z-axis  : along the Earth mean north pole at the reference epoch

Symbol meaning [1 AU=149597870.691 km, 1 day=86400.0 s]:

    JDCT     Epoch Julian Date, Coordinate Time
      X      x-component of position vector (AU)                               
      Y      y-component of position vector (AU)                               
      Z      z-component of position vector (AU)                               
      VX     x-component of velocity vector (AU/day)                           
      VY     y-component of velocity vector (AU/day)                           
      VZ     z-component of velocity vector (AU/day)                           
      LT     One-way down-leg Newtonian light-time (day)                       
      RG     Range; distance from coordinate center (AU)                       
      RR     Range-rate; radial velocity wrt coord. center (AU/day)            

Geometric states/elements have no aberration corrections applied.

 Computations by ...
     Solar System Dynamics Group, Horizons On-Line Ephemeris System
     4800 Oak Grove Drive, Jet Propulsion Laboratory
     Pasadena, CA  91109   USA
     Information: http://ssd.jpl.nasa.gov/
     Connect    : telnet://ssd.jpl.nasa.gov:6775  (via browser)
                  telnet ssd.jpl.nasa.gov 6775    (via command-line)
     Author     : Jon.Giorgini@jpl.nasa.gov
*******************************************************************************
